[{"OBJECT_NAME":"UOSAT 2 (UO-11)","OBJECT_ID":"1984-021B","EPOCH":"2026-03-09T22:36:42.882336","MEAN_MOTION":14.90508611,"ECCENTRICITY":0.00084315,"INCLINATION":97.795,"RA_OF_ASC_NODE":35.7082,"ARG_OF_PERICENTER":142.6564,"MEAN_ANOMALY":217.5241,"EPHEMERIS_TYPE":0,"CLASSIFICATION_TYPE":"U","NORAD_CAT_ID":14781,"ELEMENT_SET_NO":999,"REV_AT_EPOCH":24234,"BSTAR":0.00019045532,"MEAN_MOTION_DOT":1.805e-5,"MEAN_MOTION_DDOT":0},{"OBJECT_NAME":"COSMOS 2251 DEB","OBJECT_ID":"1993-036BSY","EPOCH":"2026-03-08T00:07:39.455328","MEAN_MOTION":14.87927245,"ECCENTRICITY":0.00028972,"INCLINATION":74.0027,"RA_OF_ASC_NODE":269.0674,"ARG_OF_PERICENTER":331.0828,"MEAN_ANOMALY":180.4393,"EPHEMERIS_TYPE":0,"CLASSIFICATION_TYPE":"U","NORAD_CAT_ID":38208,"ELEMENT_SET_NO":999,"REV_AT_EPOCH":72425,"BSTAR":0.0033323965,"MEAN_MOTION_DOT":0.00030642,"MEAN_MOTION_DDOT":0}]
